{
  "norad_id": 59035,
  "name": "STARLINK-31207",
  "history": [
    {
      "epoch": "2026-03-28T19:35:18.714912Z",
      "apogee_km": 483.8664801218356,
      "perigee_km": 482.1448822002776,
      "latitude_deg": -3.412971431187047e-05,
      "longitude_deg": 155.46787648942106,
      "height_km": 482.86339954630324,
      "semi_major_axis_km": 6861.142681161056,
      "eccentricity": 0.00012546,
      "inclination_deg": 43.0005,
      "raan_deg": 275.5271,
      "arg_perigee_deg": 264.5941,
      "mean_anomaly_deg": 95.4767,
      "mean_motion_rev_day": 15.27594499
    },
    {
      "epoch": "2026-03-29T05:00:15.446304Z",
      "apogee_km": 483.95050129797346,
      "perigee_km": 482.161788245131,
      "latitude_deg": -1.6389719409670286e-05,
      "longitude_deg": 11.629223171883531,
      "height_km": 482.84118890970205,
      "semi_major_axis_km": 6861.1931447715515,
      "eccentricity": 0.00013035,
      "inclination_deg": 43.0004,
      "raan_deg": 273.3115,
      "arg_perigee_deg": 269.4633,
      "mean_anomaly_deg": 90.6069,
      "mean_motion_rev_day": 15.27577646
    },
    {
      "epoch": "2026-03-30T12:23:23.980128Z",
      "apogee_km": 483.96529438919515,
      "perigee_km": 482.1837122102479,
      "latitude_deg": 1.0288520901405013e-05,
      "longitude_deg": -107.82937003484952,
      "height_km": 482.8526284413298,
      "semi_major_axis_km": 6861.211503299721,
      "eccentricity": 0.00012983,
      "inclination_deg": 43.002,
      "raan_deg": 265.9274,
      "arg_perigee_deg": 269.9173,
      "mean_anomaly_deg": 90.153,
      "mean_motion_rev_day": 15.27571515
    },
    {
      "epoch": "2026-03-30T20:14:10.358880Z",
      "apogee_km": 483.9659283783303,
      "perigee_km": 482.1378332129316,
      "latitude_deg": -2.100317850117115e-05,
      "longitude_deg": 132.30721951865257,
      "height_km": 482.76370316757306,
      "semi_major_axis_km": 6861.188880795631,
      "eccentricity": 0.00013322,
      "inclination_deg": 42.9999,
      "raan_deg": 264.0795,
      "arg_perigee_deg": 274.0666,
      "mean_anomaly_deg": 86.0033,
      "mean_motion_rev_day": 15.2757907
    },
    {
      "epoch": "2026-03-31T19:46:32.537280Z",
      "apogee_km": 484.0900138552706,
      "perigee_km": 482.1386739730615,
      "latitude_deg": -1.9590864804231255e-05,
      "longitude_deg": 132.70577969729987,
      "height_km": 482.6858984576394,
      "semi_major_axis_km": 6861.251343914166,
      "eccentricity": 0.0001422,
      "inclination_deg": 43.0022,
      "raan_deg": 258.5372,
      "arg_perigee_deg": 282.154,
      "mean_anomaly_deg": 77.9152,
      "mean_motion_rev_day": 15.2755821
    },
    {
      "epoch": "2026-04-01T17:44:43.361664Z",
      "apogee_km": 484.190628509662,
      "perigee_km": 481.91271387082634,
      "latitude_deg": 1.2034483039693765e-05,
      "longitude_deg": 157.08895055337095,
      "height_km": 482.58239818359993,
      "semi_major_axis_km": 6861.188671190243,
      "eccentricity": 0.000166,
      "inclination_deg": 43.0001,
      "raan_deg": 253.3677,
      "arg_perigee_deg": 282.4837,
      "mean_anomaly_deg": 77.5829,
      "mean_motion_rev_day": 15.2757914
    },
    {
      "epoch": "2026-04-02T17:17:02.560992Z",
      "apogee_km": 483.49204324247785,
      "perigee_km": 482.5519272383199,
      "latitude_deg": -6.796369166707238e-06,
      "longitude_deg": 157.5081354134376,
      "height_km": 482.7938517085393,
      "semi_major_axis_km": 6861.158985240399,
      "eccentricity": 6.851e-05,
      "inclination_deg": 43.0003,
      "raan_deg": 247.8336,
      "arg_perigee_deg": 270.5171,
      "mean_anomaly_deg": 89.5602,
      "mean_motion_rev_day": 15.27589054
    },
    {
      "epoch": "2026-04-03T18:23:36.496032Z",
      "apogee_km": 484.068946520335,
      "perigee_km": 482.2191451503768,
      "latitude_deg": 1.0642572385486306e-05,
      "longitude_deg": 133.92455065005504,
      "height_km": 482.8266507007788,
      "semi_major_axis_km": 6861.281045835355,
      "eccentricity": 0.0001348,
      "inclination_deg": 42.9971,
      "raan_deg": 241.9226,
      "arg_perigee_deg": 275.817,
      "mean_anomaly_deg": 84.2528,
      "mean_motion_rev_day": 15.27548291
    },
    {
      "epoch": "2026-04-04T19:30:03.888000Z",
      "apogee_km": 484.4516133699153,
      "perigee_km": 481.6110896723858,
      "latitude_deg": 5.182153215384604e-05,
      "longitude_deg": 110.36872771687956,
      "height_km": 482.58751471093154,
      "semi_major_axis_km": 6861.16835152115,
      "eccentricity": 0.000207,
      "inclination_deg": 43.0001,
      "raan_deg": 236.012,
      "arg_perigee_deg": 278.9552,
      "mean_anomaly_deg": 81.1066,
      "mean_motion_rev_day": 15.27585926
    },
    {
      "epoch": "2026-04-05T01:46:41.929824Z",
      "apogee_km": 484.0580789012356,
      "perigee_km": 482.0817768577281,
      "latitude_deg": -3.696015186351813e-05,
      "longitude_deg": 14.476728287627767,
      "height_km": 482.86513405803623,
      "semi_major_axis_km": 6861.206927879482,
      "eccentricity": 0.00014402,
      "inclination_deg": 42.9967,
      "raan_deg": 234.5364,
      "arg_perigee_deg": 268.9077,
      "mean_anomaly_deg": 91.1609,
      "mean_motion_rev_day": 15.27573043
    },
    {
      "epoch": "2026-04-05T17:28:17.357088Z",
      "apogee_km": 483.36531361300695,
      "perigee_km": 482.9167232561622,
      "latitude_deg": -1.0973340328345054e-05,
      "longitude_deg": 134.74054546863724,
      "height_km": 482.69235821288896,
      "semi_major_axis_km": 6861.278018434584,
      "eccentricity": 3.269e-05,
      "inclination_deg": 42.9976,
      "raan_deg": 230.8423,
      "arg_perigee_deg": 356.4215,
      "mean_anomaly_deg": 3.6634,
      "mean_motion_rev_day": 15.27549302
    },
    {
      "epoch": "2026-04-07T00:51:23.189184Z",
      "apogee_km": 483.875955897548,
      "perigee_km": 482.140772234975,
      "latitude_deg": 1.992765957033777e-05,
      "longitude_deg": 15.29454071643562,
      "height_km": 482.7941888172148,
      "semi_major_axis_km": 6861.145364066261,
      "eccentricity": 0.00012645,
      "inclination_deg": 43.0,
      "raan_deg": 223.4595,
      "arg_perigee_deg": 269.3897,
      "mean_anomaly_deg": 90.681,
      "mean_motion_rev_day": 15.27593603
    }
  ]
}